{
    "links": {
        "self": "http://www.neowsapp.com/rest/v1/neo/3567880?api_key=iIulBulltgU6a56xZRHN4H3l9WmuAYTsLGpBGhQ2"
    },
    "id": "3567880",
    "neo_reference_id": "3567880",
    "name": "(2011 LV10)",
    "designation": "2011 LV10",
    "nasa_jpl_url": "http://ssd.jpl.nasa.gov/sbdb.cgi?sstr=3567880",
    "absolute_magnitude_h": 25.1,
    "estimated_diameter": {
        "kilometers": {
            "estimated_diameter_min": 0.0253837029,
            "estimated_diameter_max": 0.0567596853
        },
        "meters": {
            "estimated_diameter_min": 25.3837029364,
            "estimated_diameter_max": 56.7596852866
        },
        "miles": {
            "estimated_diameter_min": 0.0157726969,
            "estimated_diameter_max": 0.0352688224
        },
        "feet": {
            "estimated_diameter_min": 83.279867942,
            "estimated_diameter_max": 186.2194458756
        }
    },
    "is_potentially_hazardous_asteroid": false,
    "close_approach_data": [
        {
            "close_approach_date": "1925-02-09",
            "close_approach_date_full": "1925-Feb-09 22:23",
            "epoch_date_close_approach": -1416620220000,
            "relative_velocity": {
                "kilometers_per_second": "8.2744074501",
                "kilometers_per_hour": "29787.8668205338",
                "miles_per_hour": "18509.0220252367"
            },
            "miss_distance": {
                "astronomical": "0.0723221607",
                "lunar": "28.1333205123",
                "kilometers": "10819241.194517709",
                "miles": "6722764.7395300242"
            },
            "orbiting_body": "Mars"
        },
        {
            "close_approach_date": "2008-03-14",
            "close_approach_date_full": "2008-Mar-14 00:01",
            "epoch_date_close_approach": 1205452860000,
            "relative_velocity": {
                "kilometers_per_second": "12.1178969011",
                "kilometers_per_hour": "43624.4288440932",
                "miles_per_hour": "27106.5235781534"
            },
            "miss_distance": {
                "astronomical": "0.3549291115",
                "lunar": "138.0674243735",
                "kilometers": "53096639.081392505",
                "miles": "32992721.632346369"
            },
            "orbiting_body": "Earth"
        },
        {
            "close_approach_date": "2011-05-27",
            "close_approach_date_full": "2011-May-27 23:28",
            "epoch_date_close_approach": 1306538880000,
            "relative_velocity": {
                "kilometers_per_second": "6.4408729793",
                "kilometers_per_hour": "23187.1427253984",
                "miles_per_hour": "14407.5887673454"
            },
            "miss_distance": {
                "astronomical": "0.0611866867",
                "lunar": "23.8016211263",
                "kilometers": "9153398.002677329",
                "miles": "5687657.7786679802"
            },
            "orbiting_body": "Earth"
        },
        {
            "close_approach_date": "2014-06-16",
            "close_approach_date_full": "2014-Jun-16 21:52",
            "epoch_date_close_approach": 1402955520000,
            "relative_velocity": {
                "kilometers_per_second": "15.7502317403",
                "kilometers_per_hour": "56700.8342651704",
                "miles_per_hour": "35231.6933799332"
            },
            "miss_distance": {
                "astronomical": "0.3974531181",
                "lunar": "154.6092629409",
                "kilometers": "59458139.892618447",
                "miles": "36945574.9401986886"
            },
            "orbiting_body": "Earth"
        },
        {
            "close_approach_date": "2015-05-24",
            "close_approach_date_full": "2015-May-24 04:26",
            "epoch_date_close_approach": 1432441560000,
            "relative_velocity": {
                "kilometers_per_second": "6.6322666098",
                "kilometers_per_hour": "23876.1597954124",
                "miles_per_hour": "14835.7171795439"
            },
            "miss_distance": {
                "astronomical": "0.0698950064",
                "lunar": "27.1891574896",
                "kilometers": "10456144.081076368",
                "miles": "6497146.6552871584"
            },
            "orbiting_body": "Mars"
        }
    ],
    "orbital_data": {
        "orbit_id": "5",
        "orbit_determination_date": "2017-04-06 08:53:20",
        "first_observation_date": "2011-06-06",
        "last_observation_date": "2011-06-08",
        "data_arc_in_days": 2,
        "observations_used": 20,
        "orbit_uncertainty": "8",
        "minimum_orbit_intersection": ".0608912",
        "jupiter_tisserand_invariant": "4.888",
        "epoch_osculation": "2455719.5",
        "eccentricity": ".2294930964076202",
        "semi_major_axis": "1.32812557218865",
        "inclination": "9.605862526033642",
        "ascending_node_longitude": "77.07682688374081",
        "orbital_period": "559.0583457729488",
        "perihelion_distance": "1.023329922208934",
        "perihelion_argument": "131.4346133646355",
        "aphelion_distance": "1.632921222168365",
        "perihelion_time": "2455673.332434089871",
        "mean_anomaly": "29.72913981753969",
        "mean_motion": ".6439399442329538",
        "equinox": "J2000",
        "orbit_class": {
            "orbit_class_type": "AMO",
            "orbit_class_description": "Near-Earth asteroid orbits similar to that of 1221 Amor",
            "orbit_class_range": "1.017 AU < q (perihelion) < 1.3 AU"
        }
    },
    "is_sentry_object": false
}